[{"OBJECT_NAME":"STARLINK-2171","OBJECT_ID":"2021-017AJ","EPOCH":"2026-03-10T00:00:02.999808","MEAN_MOTION":15.70905931,"ECCENTRICITY":0.0002371,"INCLINATION":53.0436,"RA_OF_ASC_NODE":167.0252,"ARG_OF_PERICENTER":165.5816,"MEAN_ANOMALY":179.0332,"EPHEMERIS_TYPE":0,"CLASSIFICATION_TYPE":"U","NORAD_CAT_ID":47754,"ELEMENT_SET_NO":999,"REV_AT_EPOCH":590,"BSTAR":0.00011207161,"MEAN_MOTION_DOT":0.00013697,"MEAN_MOTION_DDOT":0},{"OBJECT_NAME":"STARLINK-11440 [DTC]","OBJECT_ID":"2025-004C","EPOCH":"2026-03-09T23:46:24.541248","MEAN_MOTION":15.70977345,"ECCENTRICITY":0.00017403,"INCLINATION":43.0006,"RA_OF_ASC_NODE":69.1124,"ARG_OF_PERICENTER":207.3453,"MEAN_ANOMALY":152.7324,"EPHEMERIS_TYPE":0,"CLASSIFICATION_TYPE":"U","NORAD_CAT_ID":62513,"ELEMENT_SET_NO":999,"REV_AT_EPOCH":6725,"BSTAR":0.0021370545,"MEAN_MOTION_DOT":0.00285017,"MEAN_MOTION_DDOT":0}]
